[
    {
        "CCSDS_OMM_VERS": "3.0",
        "COMMENT": "GENERATED VIA SPACE-TRACK.ORG API",
        "CREATION_DATE": "2025-04-10T23:36:20",
        "ORIGINATOR": "18 SPCS",
        "OBJECT_NAME": "NAVSTAR 81 (USA 319)",
        "OBJECT_ID": "2021-054A",
        "CENTER_NAME": "EARTH",
        "REF_FRAME": "TEME",
        "TIME_SYSTEM": "UTC",
        "MEAN_ELEMENT_THEORY": "SGP4",
        "EPOCH": "2025-04-10T11:54:42.350400",
        "MEAN_MOTION": "2.00568226",
        "ECCENTRICITY": "0.00186260",
        "INCLINATION": "55.3298",
        "RA_OF_ASC_NODE": "349.8286",
        "ARG_OF_PERICENTER": "229.2921",
        "MEAN_ANOMALY": "314.6706",
        "EPHEMERIS_TYPE": "0",
        "CLASSIFICATION_TYPE": "U",
        "NORAD_CAT_ID": "48859",
        "ELEMENT_SET_NO": "999",
        "REV_AT_EPOCH": "2807",
        "BSTAR": "0.00000000000000",
        "MEAN_MOTION_DOT": "-0.00000102",
        "MEAN_MOTION_DDOT": "0.0000000000000",
        "SEMIMAJOR_AXIS": "26559.940",
        "PERIOD": "717.960",
        "APOAPSIS": "20231.275",
        "PERIAPSIS": "20132.334",
        "OBJECT_TYPE": "PAYLOAD",
        "RCS_SIZE": "LARGE",
        "COUNTRY_CODE": "US",
        "LAUNCH_DATE": "2021-06-17",
        "SITE": "AFETR",
        "DECAY_DATE": null,
        "FILE": "4698089",
        "GP_ID": "285329490",
        "TLE_LINE0": "0 NAVSTAR 81 (USA 319)",
        "TLE_LINE1": "1 48859U 21054A   25100.49632350 -.00000102  00000-0  00000+0 0  9999",
        "TLE_LINE2": "2 48859  55.3298 349.8286 0018626 229.2921 314.6706  2.00568226 28073"
    }
]